LANDSAT 8
1 39084U 13008A   19285.47191147  .00000025  00000-0  15625-4 0  9995
2 39084  98.2139 353.9261 0000949  83.2098 276.9213 14.57109590354440
SARAL
1 39086U 13009A   19284.87602355 -.00000009  00000-0  12961-4 0  9992
2 39086  98.5420 109.2824 0000204  77.1912 282.9295 14.32012292346281
GAOFEN 1
1 39150U 13018A   19285.41510503  .00000041  00000-0  13178-4 0  9994
2 39150  97.8928   3.2324 0018445 199.4203 160.6307 14.76544069348269
VNREDSAT 1
1 39160U 13021B   19285.41847103  .00000030  00000-0  15160-4 0  9999
2 39160  98.1739 359.7656 0000947  89.8398 270.2915 14.62926893343471
ARIRANG-5 (KOMPSAT-5)
1 39227U 13042A   19285.45109792  .00000195  00000-0  18248-4 0  9997
2 39227  97.6213 108.0136 0001988  96.0828 347.4717 15.04511251337080
YAOGAN 18
1 39363U 13059A   19285.43487269  .00000579  00000-0  31435-4 0  9991
2 39363  97.2859 338.5463 0002874  96.3578  82.7500 15.18244036329850
SKYSAT-1
1 39418U 13066C   19285.20960727 -.00000285  00000-0 -18628-4 0  9995
2 39418  97.6447   4.8838 0021239 320.3508  39.6161 14.98864976321940
DUBAISAT-2
1 39419U 13066D   19285.44987910  .00000084  00000-0  13024-4 0  9995
2 39419  97.5798 343.8302 0012996 324.4246  35.6125 14.94031190320995
GPM-CORE
1 39574U 14009C   19284.84644170  .00001883  00000-0  31803-4 0  9999
2 39574  65.0058 280.5415 0010792 279.8026  80.1901 15.55420548319216
SENTINEL-1A
1 39634U 14016A   19285.39036175 -.00000044  00000-0  38250-6 0  9999
2 39634  98.1825 290.9434 0001162  80.3976 279.7356 14.59198914294245
KAZEOSAT 1
1 39731U 14024A   19285.42773134 -.00000019  00000-0  73799-5 0  9991
2 39731  98.3457 359.4301 0001246  82.5469 277.5861 14.42049467286994
ALOS-2
1 39766U 14029A   19285.41933598 -.00000095  00000-0 -57967-5 0  9999
2 39766  97.9222  20.5901 0001332  85.8701 274.2657 14.79470972290878
KAZEOSAT 2
1 40010U 14033A   19285.42633207  .00000007  00000-0  74173-5 0  9992
2 40010  97.8248 182.1136 0017376  39.3060 320.9396 14.82075754287431
HODOYOSHI-4
1 40011U 14033B   19285.38705536  .00000072  00000-0  15934-4 0  9994
2 40011  97.8005 175.5523 0027786  35.9176 324.3878 14.81131609287158
DEIMOS-2
1 40013U 14033D   19285.39276774  .00000153  00000-0  24391-4 0  9991
2 40013  97.8291 187.4789 0002387  80.3114 279.8358 14.84571342287915
HODOYOSHI-3
1 40015U 14033F   19284.74359528  .00000053  00000-0  14128-4 0  9996
2 40015  97.7686 164.2683 0038355  52.4076 308.0608 14.78551887286536
SPOT 7
1 40053U 14034A   19285.41717613 -.00000044  00000-0  34309-6 0  9993
2 40053  98.2161 350.8392 0001285  77.3935 282.7415 14.58536915281378
SKYSAT-2
1 40072U 14037D   19285.03592198  .00000080  00000-0  17839-4 0  9990
2 40072  98.4416  84.8270 0005866 204.2062 155.8874 14.81212174284325
WORLDVIEW-3 (WV-3)
1 40115U 14048A   19285.46648307  .00000053  00000-0  12364-4 0  9999
2 40115  97.8038   1.8619 0002119  69.0981 291.0467 14.85034044279841
GAOFEN 2
1 40118U 14049A   19285.42673976  .00000013  00000-0  84346-5 0  9995
2 40118  97.8638   3.0081 0006337 257.2337 102.8165 14.80646803278221
YAOGAN 21
1 40143U 14053A   19285.41881627  .00000755  00000-0  34554-4 0  9999
2 40143  97.4734 348.7773 0018742  65.2492  63.0483 15.23496429283481
YAOGAN 22
1 40275U 14063A   19285.47933225 -.00000045  00000-0  00000+0 0  9991
2 40275 100.4786  36.8124 0005622 306.6971  53.3619 13.15338155239036
ASNARO
1 40298U 14070A   19285.43459553  .00000778  00000-0  39745-4 0  9992
2 40298  97.4372   6.6413 0001961  88.5052 333.3613 15.19599103273526
HODOYOSHI-1
1 40299U 14070B   19285.44193608  .00000546  00000-0  25806-4 0  9996
2 40299  97.3426   2.7562 0013055   2.2153  53.8842 15.23470223273894
QSAT-EOS
1 40301U 14070D   19285.43230384  .00001492  00000-0  60007-4 0  9995
2 40301  97.3196   0.3083 0025482 353.4798  64.2880 15.26196346273945
YAOGAN 23
1 40305U 14071A   19285.43692831  .00000581  00000-0  31912-4 0  9990
2 40305  97.4969 221.7379 0000926  89.3532  27.3678 15.18004070271959
YAOGAN 24
1 40310U 14072A   19285.44486297  .00000034  00000-0  12222-4 0  9991
2 40310  97.8712  48.4348 0016486 205.4014 154.6392 14.76305308263790
CBERS 4
1 40336U 14079A   19285.39571935 -.00000030  00000-0  48259-5 0  9991
2 40336  98.5933 353.5618 0001612 100.8994 259.2375 14.35395694253953
RESURS P2
1 40360U 14087A   19285.43320025  .00000594  00000-0  20833-4 0  9995
2 40360  97.2563  13.9876 0009510   7.5852 122.5948 15.33236634268152
YAOGAN 26
1 40362U 14088A   19285.44295345  .00000794  00000-0  35984-4 0  9990
2 40362  97.2789 356.3596 0008259 294.2826 121.1715 15.23637802266956
SMAP
1 40376U 15003A   19285.43035408  .00000029  00000-0  14644-4 0  9995
2 40376  98.1251 290.6449 0001864  62.2671 297.8723 14.63386914250803
KOMPSAT-3A
1 40536U 15014A   19285.41895002  .00000378  00000-0  25757-4 0  9991
2 40536  97.5583 222.5410 0007908 284.1109 190.1251 15.12018315251084
SENTINEL-2A
1 40697U 15028A   19285.52223242 -.00000019  00000-0  95672-5 0  9994
2 40697  98.5704 358.3244 0001109  84.0949 276.0367 14.30816202224865
GAOFEN 8
1 40701U 15030A   19285.47115505  .00000930  00000-0  41851-4 0  9999
2 40701  97.4463  44.4636 0009471 306.5177 116.6876 15.23577951239334
CARBONITE 1 (CBNT-1)
1 40718U 15032D   19285.38914286  .00000088  00000-0  20644-4 0  9993
2 40718  97.8675 168.7746 0015788 296.9386  63.0201 14.74730971229104
YAOGAN 27
1 40878U 15040A   19285.46947030 -.00000043  00000-0  00000+0 0  9992
2 40878 100.2751 336.5128 0008935  76.4018 283.8091 13.15963173198260
GAOFEN 9
1 40894U 15047A   19285.41423160  .00000029  00000-0  11539-4 0  9992
2 40894  97.9106   5.1941 0034533 130.3677 230.0560 14.76299071219738
LAPAN-A2
1 40931U 15052B   19284.50991012  .00000141  00000-0 -69845-4 0  9994
2 40931   6.0059 317.7712 0016039 338.4638  21.4786 14.76613481218269
YAOGAN 28
1 41026U 15064A   19285.42076979  .00000710  00000-0  32612-4 0  9994
2 41026  97.4223  54.3760 0000393  80.6100   4.3389 15.23597159219171
YAOGAN 29
1 41038U 15069A   19285.44181663 -.00000014  00000-0  50187-5 0  9997
2 41038  97.9876 269.1859 0001538  40.1010 320.0319 14.80420211209436
KENT RIDGE 1
1 41167U 15077B   19284.82458528  .00000965  00000-0  18845-4 0  9995
2 41167  14.9792 141.0092 0011382 160.0894 290.5835 15.09071783211011
TELEOS 1
1 41169U 15077D   19284.86758218  .00001208  00000-0  32216-4 0  9999
2 41169  14.9829 129.0331 0010181 179.0956 287.6437 15.10327113211121
GAOFEN 4
1 41194U 15083A   19285.26819448 -.00000341  00000-0  00000+0 0  9991
2 41194   0.0487 119.5580 0004296  95.2661   8.0251  1.00275088 14023
JASON-3
1 41240U 16002A   19284.74387673 -.00000030  00000-0  13471-3 0  9992
2 41240  66.0402 163.8107 0007761 268.2719  91.7407 12.80930275174572
SENTINEL-3A
1 41335U 16011A   19285.46827746  .00000006  00000-0  20348-4 0  9991
2 41335  98.6269 350.7785 0001157 108.9910 251.1396 14.26736613190179
SENTINEL-1B
1 41456U 16025A   19285.42416424 -.00000067  00000-0 -45054-5 0  9994
2 41456  98.1825 290.8027 0001181  85.3031 274.8305 14.59198435184410
ZIYUAN 3-2 (ZY 3-2)
1 41556U 16033A   19285.44355324  .00000560  00000-0  28024-4 0  9990
2 41556  97.3894   0.6066 0003073 133.1685  49.7867 15.21379762187056
NUSAT-1 (FRESCO)
1 41557U 16033B   19285.48477123  .00001158  00000-0  45850-4 0  9997
2 41557  97.4152  12.3065 0012261 245.7083 114.2875 15.27432691187767
NUSAT-2 (BATATA)
1 41558U 16033C   19285.44024606  .00001225  00000-0  45672-4 0  9995
2 41558  97.4183  13.6874 0011308 245.4059 114.6003 15.29346777187820
CARTOSAT-2C
1 41599U 16040A   19285.46678336  .00000441  00000-0  24193-4 0  9999
2 41599  97.4870 342.8098 0013917   4.3003  53.6027 15.19226895183294
SKYSAT-C1
1 41601U 16040C   19285.42350507  .00000529  00000-0  25120-4 0  9994
2 41601  97.3855   2.4226 0002260 103.5326  24.6407 15.23430070183681
LAPAN-A3
1 41603U 16040E   19285.40499442  .00000162  00000-0  10729-4 0  9998
2 41603  97.3483 341.1815 0013765   1.6389 128.3277 15.19750874183315
BIROS
1 41604U 16040F   19285.19610812  .00000366  00000-0  19119-4 0  9999
2 41604  97.3521 343.9425 0011898 348.3950  11.7010 15.21803574183461
GAOFEN 3
1 41727U 16049A   19285.40528694 -.00000025  00000-0  55231-5 0  9993
2 41727  98.4150 291.4900 0001317  59.0903 301.0422 14.42215385166979
SKYSAT-C4
1 41771U 16058B   19285.42328998  .00000440  00000-0  21392-4 0  9999
2 41771  97.3909 354.8914 0002024  94.2486 265.8982 15.23440331170626
SKYSAT-C5
1 41772U 16058C   19285.45393610  .00000535  00000-0  25377-4 0  9998
2 41772  97.3895 354.4417 0001925  80.5276 335.1224 15.23470032170620
SKYSAT-C2
1 41773U 16058D   19285.20533217  .00000453  00000-0  21913-4 0  9992
2 41773  97.3930 354.8563 0001484  91.7336 268.4071 15.23496939170596
SKYSAT-C3
1 41774U 16058E   19285.28097558  .00000484  00000-0  23236-4 0  9998
2 41774  97.3941 354.9590 0001779  89.3547 270.7894 15.23449333170601
ALSAT 1B
1 41785U 16059C   19285.45066747 -.00000017  00000-0  59380-5 0  9999
2 41785  98.0527 342.8204 0031790  19.4554 340.7855 14.63329029162481
PATHFINDER 1
1 41787U 16059E   19285.21650377  .00000033  00000-0  15433-4 0  9990
2 41787  98.0553 343.3677 0031034  18.2032 342.0288 14.63688745162489
SCATSAT 1
1 41790U 16059H   19285.37165022  .00000000  00000-0  10949-4 0  9990
2 41790  98.1980 327.5972 0005269 340.0925  20.0071 14.50889860161106
WORLDVIEW-4 (WV-4)
1 41848U 16067A   19283.80776005  .00002731  00000-0  10000-3 0  9998
2 41848  97.8484   8.7666 0053034 126.0586 234.4463 15.27672945158258
GOKTURK 1A
1 41875U 16073A   19285.41594713  .00000007  00000-0  10460-4 0  9993
2 41875  98.1179 178.1980 0001233  76.1399 283.9925 14.62789452152150
RESOURCESAT-2A
1 41877U 16074A   19285.43994987  .00000240  00000-0  12892-3 0  9994
2 41877  98.6235 355.7388 0001312  65.9136 294.2163 14.21675931147668
CARTOSAT-2D
1 41948U 17008A   19285.35909418  .00000347  00000-0  19614-4 0  9995
2 41948  97.3828 343.2200 0008415 132.8386 227.3571 15.19247262147141
SENTINEL-2B
1 42063U 17013A   19285.41731357 -.00000004  00000-0  15164-4 0  9999
2 42063  98.5691 358.2225 0000904  93.6895 266.4394 14.30817124135762
